[{"OBJECT_NAME":"STARLINK-30437","OBJECT_ID":"2023-156J","EPOCH":"2026-03-09T06:24:08.785440","MEAN_MOTION":15.30194159,"ECCENTRICITY":0.0001127,"INCLINATION":53.1603,"RA_OF_ASC_NODE":80.1618,"ARG_OF_PERICENTER":92.6776,"MEAN_ANOMALY":267.4354,"EPHEMERIS_TYPE":0,"CLASSIFICATION_TYPE":"U","NORAD_CAT_ID":58036,"ELEMENT_SET_NO":999,"REV_AT_EPOCH":13620,"BSTAR":-9.07274e-6,"MEAN_MOTION_DOT":-6.28e-6,"MEAN_MOTION_DDOT":0},{"OBJECT_NAME":"CZ-6A DEB","OBJECT_ID":"2022-151QB","EPOCH":"2026-03-08T18:03:47.471328","MEAN_MOTION":15.32168285,"ECCENTRICITY":0.00205863,"INCLINATION":98.6246,"RA_OF_ASC_NODE":151.4486,"ARG_OF_PERICENTER":181.9757,"MEAN_ANOMALY":178.1404,"EPHEMERIS_TYPE":0,"CLASSIFICATION_TYPE":"U","NORAD_CAT_ID":54890,"ELEMENT_SET_NO":999,"REV_AT_EPOCH":17659,"BSTAR":0.012866954,"MEAN_MOTION_DOT":0.00424465,"MEAN_MOTION_DDOT":0}]
